{
  "type": "FeatureCollection",
  "features": [
    {
      "type": "Feature",
      "properties": {
        "norad_id": 34492,
        "name": "IRIDIUM 33 DEB",
        "group": "iridium-33-debris",
        "lat": 58.90367906943457,
        "lon": -18.91802810353593,
        "alt_km": 936.2369508287284,
        "timestamp": "2025-12-11T07:02:24.115434+00:00",
        "meta_object_name": "IRIDIUM 33 DEB",
        "meta_object_id": "1997-051GH",
        "meta_epoch": "2025-12-10T11:09:51.703200",
        "meta_mean_motion": 14.25634536,
        "meta_eccentricity": 0.01891979,
        "meta_inclination": 86.473,
        "meta_ra_of_asc_node": 335.5473,
        "meta_arg_of_pericenter": 245.5701,
        "meta_mean_anomaly": 245.7256,
        "meta_ephemeris_type": 0,
        "meta_classification_type": "U",
        "meta_norad_cat_id": 34492,
        "meta_element_set_no": 999,
        "meta_rev_at_epoch": 85026,
        "meta_bstar": 0.0074682378,
        "meta_mean_motion_dot": 0.00021406,
        "meta_mean_motion_ddot": 0,
        "tle_line1": "1 34492U 97051GH  25344.46518175  .00021406  00000+0  74682-2 0  9990",
        "tle_line2": "2 34492  86.4730 335.5473 0189197 245.5701 245.7256 14.25634536850262"
      },
      "geometry": {
        "type": "Point",
        "coordinates": [
          -18.91802810353593,
          58.90367906943457
        ]
      }
    },
    {
      "type": "Feature",
      "properties": {
        "norad_id": 34497,
        "name": "IRIDIUM 33 DEB",
        "group": "iridium-33-debris",
        "lat": -72.17986913328663,
        "lon": 41.33609533154285,
        "alt_km": 776.3264471711982,
        "timestamp": "2025-12-11T07:02:24.115444+00:00",
        "meta_object_name": "IRIDIUM 33 DEB",
        "meta_object_id": "1997-051GN",
        "meta_epoch": "2025-12-10T04:35:23.086752",
        "meta_mean_motion": 14.2744131,
        "meta_eccentricity": 0.00790645,
        "meta_inclination": 86.2779,
        "meta_ra_of_asc_node": 53.4903,
        "meta_arg_of_pericenter": 347.8917,
        "meta_mean_anomaly": 40.4515,
        "meta_ephemeris_type": 0,
        "meta_classification_type": "U",
        "meta_norad_cat_id": 34497,
        "meta_element_set_no": 999,
        "meta_rev_at_epoch": 86847,
        "meta_bstar": 0.00082191095,
        "meta_mean_motion_dot": 2.102e-05,
        "meta_mean_motion_ddot": 0,
        "tle_line1": "1 34497U 97051GN  25344.19123943  .00002102  00000+0  82191-3 0  9997",
        "tle_line2": "2 34497  86.2779  53.4903 0079064 347.8917  40.4515 14.27441310868476"
      },
      "geometry": {
        "type": "Point",
        "coordinates": [
          41.33609533154285,
          -72.17986913328663
        ]
      }
    },
    {
      "type": "Feature",
      "properties": {
        "norad_id": 34508,
        "name": "IRIDIUM 33 DEB",
        "group": "iridium-33-debris",
        "lat": 28.691771490004005,
        "lon": 105.24715699023974,
        "alt_km": 802.7289602512101,
        "timestamp": "2025-12-11T07:02:24.115454+00:00",
        "meta_object_name": "IRIDIUM 33 DEB",
        "meta_object_id": "1997-051GZ",
        "meta_epoch": "2025-12-10T17:32:54.116160",
        "meta_mean_motion": 14.38397935,
        "meta_eccentricity": 0.00659335,
        "meta_inclination": 86.3699,
        "meta_ra_of_asc_node": 103.4944,
        "meta_arg_of_pericenter": 179.5096,
        "meta_mean_anomaly": 180.6179,
        "meta_ephemeris_type": 0,
        "meta_classification_type": "U",
        "meta_norad_cat_id": 34508,
        "meta_element_set_no": 999,
        "meta_rev_at_epoch": 87280,
        "meta_bstar": 0.0024146559,
        "meta_mean_motion_dot": 7.57e-05,
        "meta_mean_motion_ddot": 0,
        "tle_line1": "1 34508U 97051GZ  25344.73118190  .00007570  00000+0  24147-2 0  9998",
        "tle_line2": "2 34508  86.3699 103.4944 0065933 179.5096 180.6179 14.38397935872800"
      },
      "geometry": {
        "type": "Point",
        "coordinates": [
          105.24715699023974,
          28.691771490004005
        ]
      }
    },
    {
      "type": "Feature",
      "properties": {
        "norad_id": 34521,
        "name": "IRIDIUM 33 DEB",
        "group": "iridium-33-debris",
        "lat": 76.81781558404265,
        "lon": 46.86606978262701,
        "alt_km": 676.0524103033158,
        "timestamp": "2025-12-11T07:02:24.115465+00:00",
        "meta_object_name": "IRIDIUM 33 DEB",
        "meta_object_id": "1997-051HN",
        "meta_epoch": "2025-12-10T20:50:27.765888",
        "meta_mean_motion": 14.63339894,
        "meta_eccentricity": 0.00013548,
        "meta_inclination": 86.38,
        "meta_ra_of_asc_node": 31.3716,
        "meta_arg_of_pericenter": 226.1089,
        "meta_mean_anomaly": 134.0012,
        "meta_ephemeris_type": 0,
        "meta_classification_type": "U",
        "meta_norad_cat_id": 34521,
        "meta_element_set_no": 999,
        "meta_rev_at_epoch": 88445,
        "meta_bstar": 0.0013533908,
        "meta_mean_motion_dot": 7.01e-05,
        "meta_mean_motion_ddot": 0,
        "tle_line1": "1 34521U 97051HN  25344.86837692  .00007010  00000+0  13534-2 0  9999",
        "tle_line2": "2 34521  86.3800  31.3716 0001354 226.1089 134.0012 14.63339894884454"
      },
      "geometry": {
        "type": "Point",
        "coordinates": [
          46.86606978262701,
          76.81781558404265
        ]
      }
    },
    {
      "type": "Feature",
      "properties": {
        "norad_id": 34525,
        "name": "IRIDIUM 33 DEB",
        "group": "iridium-33-debris",
        "lat": 2.533060176495291,
        "lon": 47.621821047121266,
        "alt_km": 752.1012418944483,
        "timestamp": "2025-12-11T07:02:24.115475+00:00",
        "meta_object_name": "IRIDIUM 33 DEB",
        "meta_object_id": "1997-051HS",
        "meta_epoch": "2025-12-10T15:05:26.627424",
        "meta_mean_motion": 14.42897814,
        "meta_eccentricity": 0.0006702,
        "meta_inclination": 86.3728,
        "meta_ra_of_asc_node": 47.7446,
        "meta_arg_of_pericenter": 100.2162,
        "meta_mean_anomaly": 52.7315,
        "meta_ephemeris_type": 0,
        "meta_classification_type": "U",
        "meta_norad_cat_id": 34525,
        "meta_element_set_no": 999,
        "meta_rev_at_epoch": 88057,
        "meta_bstar": 0.00056976,
        "meta_mean_motion_dot": 1.923e-05,
        "meta_mean_motion_ddot": 0,
        "tle_line1": "1 34525U 97051HS  25344.62878041  .00001923  00000+0  56976-3 0  9995",
        "tle_line2": "2 34525  86.3728  47.7446 0006702 100.2162  52.7315 14.42897814880573"
      },
      "geometry": {
        "type": "Point",
        "coordinates": [
          47.621821047121266,
          2.533060176495291
        ]
      }
    },
    {
      "type": "Feature",
      "properties": {
        "norad_id": 34529,
        "name": "IRIDIUM 33 DEB",
        "group": "iridium-33-debris",
        "lat": -86.32591118208772,
        "lon": -62.01338852320977,
        "alt_km": 763.8202582007452,
        "timestamp": "2025-12-11T07:02:24.115485+00:00",
        "meta_object_name": "IRIDIUM 33 DEB",
        "meta_object_id": "1997-051HW",
        "meta_epoch": "2025-12-10T21:27:28.298592",
        "meta_mean_motion": 14.40613504,
        "meta_eccentricity": 0.0004575,
        "meta_inclination": 86.3643,
        "meta_ra_of_asc_node": 36.1987,
        "meta_arg_of_pericenter": 182.7168,
        "meta_mean_anomaly": 177.4008,
        "meta_ephemeris_type": 0,
        "meta_classification_type": "U",
        "meta_norad_cat_id": 34529,
        "meta_element_set_no": 999,
        "meta_rev_at_epoch": 88115,
        "meta_bstar": 0.00017116699,
        "meta_mean_motion_dot": 5.65e-06,
        "meta_mean_motion_ddot": 0,
        "tle_line1": "1 34529U 97051HW  25344.89407753  .00000565  00000+0  17117-3 0  9991",
        "tle_line2": "2 34529  86.3643  36.1987 0004575 182.7168 177.4008 14.40613504881151"
      },
      "geometry": {
        "type": "Point",
        "coordinates": [
          -62.01338852320977,
          -86.32591118208772
        ]
      }
    },
    {
      "type": "Feature",
      "properties": {
        "norad_id": 34538,
        "name": "IRIDIUM 33 DEB",
        "group": "iridium-33-debris",
        "lat": 82.6841341222471,
        "lon": 155.71577871951925,
        "alt_km": 755.2858306325588,
        "timestamp": "2025-12-11T07:02:24.115495+00:00",
        "meta_object_name": "IRIDIUM 33 DEB",
        "meta_object_id": "1997-051JF",
        "meta_epoch": "2025-12-10T12:59:24.609120",
        "meta_mean_motion": 14.42626981,
        "meta_eccentricity": 0.0033054,
        "meta_inclination": 86.2772,
        "meta_ra_of_asc_node": 6.5186,
        "meta_arg_of_pericenter": 335.5091,
        "meta_mean_anomaly": 177.0552,
        "meta_ephemeris_type": 0,
        "meta_classification_type": "U",
        "meta_norad_cat_id": 34538,
        "meta_element_set_no": 999,
        "meta_rev_at_epoch": 87724,
        "meta_bstar": 0.0013644,
        "meta_mean_motion_dot": 4.581e-05,
        "meta_mean_motion_ddot": 0,
        "tle_line1": "1 34538U 97051JF  25344.54125705  .00004581  00000+0  13644-2 0  9999",
        "tle_line2": "2 34538  86.2772   6.5186 0033054 335.5091 177.0552 14.42626981877242"
      },
      "geometry": {
        "type": "Point",
        "coordinates": [
          155.71577871951925,
          82.6841341222471
        ]
      }
    }
  ]
}